{
  "norad_id": 44725,
  "name": "STARLINK-1020",
  "history": [
    {
      "epoch": "2026-03-28T08:17:47.039712Z",
      "apogee_km": 473.90838306001024,
      "perigee_km": 471.195784210453,
      "latitude_deg": -1.1618587854599552e-05,
      "longitude_deg": 166.94833579640013,
      "height_km": 473.03735522222433,
      "semi_major_axis_km": 6850.689083635231,
      "eccentricity": 0.00019798,
      "inclination_deg": 53.1619,
      "raan_deg": 117.1618,
      "arg_perigee_deg": 72.294,
      "mean_anomaly_deg": 287.8277,
      "mean_motion_rev_day": 15.31092311
    }
  ]
}